     2              NAVIGATION DATA                         RINEX VERSION / TYPE
CCRINEXN V1.6.0 UX  CDDIS               01-OCT-16 17:31     PGM / RUN BY / DATE 
IGS BROADCAST EPHEMERIS FILE                                COMMENT             
    0.1024D-07  0.7451D-08 -0.5960D-07 -0.5960D-07          ION ALPHA           
    0.8806D+05  0.0000D+00 -0.1966D+06 -0.6554D+05          ION BETA            
    0.931322574615D-09 0.888178419700D-14   503808     1916 DELTA-UTC: A0,A1,T,W
    17                                                      LEAP SECONDS        
                                                            END OF HEADER       
18 16  9 30  4  0  0.0 0.562513247132D-03 0.352429196937D-11 0.000000000000D+00
    0.210000000000D+02-0.374687500000D+02 0.515735768179D-08-0.333247220330D+00
   -0.193528831005D-05 0.172521993518D-01 0.117719173431D-04 0.515372518539D+04
    0.446400000000D+06-0.171363353729D-06 0.287161390453D+01 0.236555933952D-06
    0.925617791902D+00 0.140718750000D+03-0.185777340420D+01-0.858714340328D-08
   -0.485734518507D-10 0.100000000000D+01 0.191600000000D+04 0.000000000000D+00
    0.200000000000D+01 0.000000000000D+00-0.111758708954D-07 0.210000000000D+02
    0.439200000000D+06 0.400000000000D+01 0.000000000000D+00 0.000000000000D+00
19 16  9 30  4  0  0.0-0.522399786860D-03 0.454747350886D-12 0.000000000000D+00
    0.760000000000D+02 0.744375000000D+02 0.437232498203D-08 0.122469934462D+01
    0.394694507122D-05 0.104651700240D-01 0.683963298798D-05 0.515362615395D+04
    0.446400000000D+06-0.132247805595D-06 0.908114214076D+00-0.391155481338D-07
    0.974684479749D+00 0.262093750000D+03 0.870591273815D+00-0.817034032747D-08
    0.274654297597D-09 0.100000000000D+01 0.191600000000D+04 0.000000000000D+00
    0.200000000000D+01 0.000000000000D+00-0.149011611938D-07 0.760000000000D+02
    0.439200000000D+06 0.400000000000D+01 0.000000000000D+00 0.000000000000D+00
20 16  9 30  4  0  0.0 0.438297167420D-03 0.204636307899D-11 0.000000000000D+00
    0.200000000000D+02-0.552500000000D+02 0.494663461862D-08-0.276696201896D+01
   -0.303238630295D-05 0.467747950461D-02 0.114366412163D-04 0.515359762001D+04
    0.446400000000D+06 0.316649675369D-07 0.282000421010D+01-0.186264514923D-07
    0.926890546723D+00 0.136000000000D+03 0.144678360844D+01-0.815319675623D-08
   -0.148934775160D-09 0.100000000000D+01 0.191600000000D+04 0.000000000000D+00
    0.200000000000D+01 0.000000000000D+00-0.838190317154D-08 0.200000000000D+02
    0.442500000000D+06 0.400000000000D+01 0.000000000000D+00 0.000000000000D+00
21 16  9 30  4  0  0.0-0.532427802682D-03-0.341060513165D-12 0.000000000000D+00
    0.320000000000D+02-0.424375000000D+02 0.551237246958D-08 0.642245164706D+00
   -0.224262475967D-05 0.233287904412D-01 0.382773578167D-05 0.515381149101D+04
    0.446400000000D+06-0.312924385071D-06 0.183002422255D+01-0.128522515297D-06
    0.937092418072D+00 0.301250000000D+03-0.175446761392D+01-0.911109379934D-08
   -0.410017078857D-09 0.100000000000D+01 0.191600000000D+04 0.000000000000D+00
    0.200000000000D+01 0.000000000000D+00-0.977888703346D-08 0.320000000000D+02
    0.439218000000D+06 0.400000000000D+01 0.000000000000D+00 0.000000000000D+00
22 16  9 30  4  0  0.0 0.231731217355D-03-0.102318153950D-10 0.000000000000D+00
    0.910000000000D+02-0.283750000000D+02 0.500735143343D-08-0.240292451751D+01
   -0.170618295670D-05 0.741540687159D-02 0.115390866995D-04 0.515372226334D+04
    0.446400000000D+06 0.106170773506D-06 0.287199690234D+01 0.186264514923D-08
    0.923567168428D+00 0.131781250000D+03-0.186103962336D+01-0.811533803640D-08
   -0.614311302817D-10 0.100000000000D+01 0.191600000000D+04 0.000000000000D+00
    0.200000000000D+01 0.000000000000D+00-0.176951289177D-07 0.910000000000D+02
    0.439200000000D+06 0.400000000000D+01 0.000000000000D+00 0.000000000000D+00
23 16  9 30  4  0  0.0-0.191689934582D-03-0.136424205266D-11 0.000000000000D+00
    0.116000000000D+03 0.870937500000D+02 0.504020994498D-08 0.311856619429D+01
    0.441260635853D-05 0.111319817370D-01 0.686571002007D-05 0.515360989571D+04
    0.446400000000D+06-0.204890966415D-07-0.233225607263D+01-0.122934579849D-06
    0.945485392679D+00 0.243312500000D+03-0.252785146019D+01-0.821641367518D-08
    0.580381318069D-09 0.100000000000D+01 0.191600000000D+04 0.000000000000D+00
    0.200000000000D+01 0.000000000000D+00-0.200234353542D-07 0.116000000000D+03
    0.441870000000D+06 0.400000000000D+01 0.000000000000D+00 0.000000000000D+00
24 16  9 30  4  0  0.0-0.238893553615D-04-0.568434188608D-12 0.000000000000D+00
    0.500000000000D+02-0.410937500000D+02 0.533522223342D-08 0.257467043439D+01
   -0.210106372833D-05 0.470914028119D-02 0.339932739735D-05 0.515372030640D+04
    0.446400000000D+06-0.931322574615D-07-0.130671348284D+01-0.316649675369D-07
    0.947672762420D+00 0.307031250000D+03 0.393674082951D+00-0.855428489173D-08
   -0.226438003480D-09 0.100000000000D+01 0.191600000000D+04 0.000000000000D+00
    0.200000000000D+01 0.000000000000D+00 0.232830643654D-08 0.500000000000D+02
    0.439200000000D+06 0.400000000000D+01 0.000000000000D+00 0.000000000000D+00
25 16  9 30  4  0  0.0-0.254871789366D-03-0.693489710102D-11 0.000000000000D+00
    0.860000000000D+02-0.355312500000D+02 0.400052378073D-08 0.462791758597D+00
   -0.175088644028D-05 0.559722108301D-02 0.119209289551D-04 0.515369750786D+04
    0.446400000000D+06-0.242143869400D-07-0.230965714089D+00 0.707805156708D-07
    0.978531240394D+00 0.157968750000D+03 0.781643218417D+00-0.778496713227D-08
   -0.312870175156D-09 0.100000000000D+01 0.191600000000D+04 0.000000000000D+00
    0.280000000000D+01 0.000000000000D+00 0.558793544769D-08 0.860000000000D+02
    0.440520000000D+06 0.400000000000D+01 0.000000000000D+00 0.000000000000D+00
26 16  9 30  4  0  0.0-0.478656031191D-03-0.659383658785D-11 0.000000000000D+00
    0.880000000000D+02-0.314375000000D+02 0.423910514717D-08 0.305409150317D-01
   -0.179000198841D-05 0.101318478119D-02 0.118166208267D-04 0.515359329796D+04
    0.446400000000D+06 0.428408384323D-07-0.242143795061D+00 0.111758708954D-07
    0.960424431224D+00 0.152968750000D+03-0.120704059946D+00-0.785568436364D-08
   -0.317870383435D-09 0.100000000000D+01 0.191600000000D+04 0.000000000000D+00
    0.280000000000D+01 0.000000000000D+00 0.698491930962D-08 0.880000000000D+02
    0.439218000000D+06 0.400000000000D+01 0.000000000000D+00 0.000000000000D+00
27 16  9 30  4  0  0.0 0.145668163896D-03 0.488853402203D-11 0.000000000000D+00
    0.420000000000D+02 0.822500000000D+02 0.428446433887D-08-0.187543753143D+01
    0.437721610069D-05 0.382208765950D-02 0.692903995514D-05 0.515364964867D+04
    0.446400000000D+06-0.577419996262D-07 0.809047676586D+00-0.931322574616D-08
    0.972551890438D+00 0.254062500000D+03 0.340663389906D+00-0.798961874438D-08
    0.421803286743D-09 0.100000000000D+01 0.191600000000D+04 0.000000000000D+00
    0.200000000000D+01 0.000000000000D+00 0.186264514923D-08 0.420000000000D+02
    0.439200000000D+06 0.000000000000D+00 0.000000000000D+00 0.000000000000D+00
28 16  9 30  4  0  0.0 0.555747654289D-03 0.295585778076D-11 0.000000000000D+00
    0.117000000000D+03-0.228125000000D+01 0.369586827809D-08-0.102926218920D+01
   -0.128522515297D-06 0.199037902057D-01 0.128913670778D-04 0.515363888740D+04
    0.446400000000D+06-0.314787030220D-06-0.154988503345D+00 0.238418579102D-06
    0.989676070701D+00 0.150000000000D+03-0.161108283342D+01-0.785461296004D-08
   -0.234295471913D-09 0.100000000000D+01 0.191600000000D+04 0.000000000000D+00
    0.280000000000D+01 0.000000000000D+00-0.107102096081D-07 0.117000000000D+03
    0.439200000000D+06 0.000000000000D+00 0.000000000000D+00 0.000000000000D+00
29 16  9 30  4  0  0.0 0.649340916425D-03-0.125055521494D-11 0.000000000000D+00
    0.910000000000D+02 0.771875000000D+02 0.427482092059D-08 0.119948816784D+00
    0.392086803913D-05 0.526338932104D-03 0.694207847118D-05 0.515373996735D+04
    0.446400000000D+06 0.186264514923D-08 0.869526968728D+00-0.745058059692D-08
    0.978582934067D+00 0.254312500000D+03 0.932265290191D-01-0.801711965950D-08
    0.388230457071D-09 0.100000000000D+01 0.191600000000D+04 0.000000000000D+00
    0.200000000000D+01 0.000000000000D+00-0.102445483208D-07 0.910000000000D+02
    0.439740000000D+06 0.400000000000D+01 0.000000000000D+00 0.000000000000D+00
30 16  9 30  4  0  0.0 0.152351334691D-03 0.147792889038D-11 0.000000000000D+00
    0.200000000000D+02-0.571562500000D+02 0.530272087961D-08 0.162489421228D+01
   -0.282377004623D-05 0.240759307053D-02 0.436976552010D-05 0.515376185226D+04
    0.446400000000D+06 0.931322574615D-07-0.121497793945D+01 0.577419996262D-07
    0.950415738208D+00 0.289687500000D+03-0.312847292191D+01-0.862250201896D-08
   -0.399659504565D-09 0.100000000000D+01 0.191600000000D+04 0.000000000000D+00
    0.200000000000D+01 0.000000000000D+00 0.372529029846D-08 0.200000000000D+02
    0.439200000000D+06 0.400000000000D+01 0.000000000000D+00 0.000000000000D+00
32 16  9 30  4  0  0.0-0.134854111820D-03-0.151203494170D-10 0.000000000000D+00
    0.510000000000D+02 0.769687500000D+02 0.474269755239D-08-0.144914216739D+01
    0.407919287682D-05 0.633127754554D-03 0.714138150215D-05 0.515365248871D+04
    0.446400000000D+06-0.391155481338D-07-0.233429727930D+01 0.353902578354D-07
    0.959136908245D+00 0.240593750000D+03-0.235356301656D+01-0.823320008869D-08
    0.556808907612D-09 0.100000000000D+01 0.191600000000D+04 0.000000000000D+00
    0.200000000000D+01 0.000000000000D+00 0.931322574616D-09 0.510000000000D+02
    0.439200000000D+06 0.400000000000D+01 0.000000000000D+00 0.000000000000D+00
